{"spkid": "54547733", "covariance": {"labels": ["e", "q", "tp", "node", "peri", "i"], "data": [["4.354230320759071E-13", "-1.161866968231998E-12", "-1.479004829507579E-10", "1.804604109546792E-11", "-1.419277282879071E-10", "1.051796997587924E-11"], ["-1.161866968231998E-12", "3.100295638889874E-12", "3.945799404395517E-10", "-4.819076344191417E-11", "3.786978035708743E-10", "-2.806977450059577E-11"], ["-1.479004829507579E-10", "3.945799404395517E-10", "5.118190330777282E-8", "-5.634691039375681E-9", "4.85757088886981E-8", "-3.541155066580835E-9"], ["1.804604109546792E-11", "-4.819076344191417E-11", "-5.634691039375681E-9", "4.381781142294566E-9", "-8.917541710732283E-9", "1.942909995580445E-9"], ["-1.419277282879071E-10", "3.786978035708743E-10", "4.85757088886981E-8", "-8.917541710732283E-9", "4.956054143459822E-8", "-4.855674857856833E-9"], ["1.051796997587924E-11", "-2.806977450059577E-11", "-3.541155066580835E-9", "1.942909995580445E-9", "-4.855674857856833E-9", "1.100178825776132E-9"]], "elements": [{"label": "e", "name": "e", "sigma": 6.59865919771515e-07, "value": ".6893219336730366", "title": "eccentricity", "units": null}, {"label": "q", "sigma": 1.76076563996742e-06, "name": "q", "title": "perihelion distance", "value": ".8573779803704569", "units": "au"}, {"label": "tp", "title": "time of perihelion passage", "value": "2459220.413236406038", "units": "TDB", "sigma": 0.000226234178027487, "name": "tp"}, {"name": "om", "sigma": 6.61950235462951e-05, "units": "deg", "title": "longitude of the ascending node", "value": "345.7277245445825", "label": "node"}, {"units": "deg", "title": "argument of perihelion", "value": "301.8855790347504", "name": "w", "sigma": 0.000222621969793186, "label": "peri"}, {"name": "i", "sigma": 3.31689436940059e-05, "units": "deg", "title": "inclination", "value": "12.3931095705036", "label": "i"}], "epoch": "2459373.5"}, "elements": [{"label": "e", "sigma": "6.6422E-7", "name": "e", "units": null, "title": "eccentricity", "value": ".6885833030026367"}, {"units": "au", "title": "semi-major axis", "value": "2.762728607470855", "sigma": "1.7741E-7", "name": "a", "label": "a"}, {"units": "au", "value": ".8603598176386988", "title": "perihelion distance", "sigma": "1.7799E-6", "name": "q", "label": "q"}, {"label": "i", "value": "12.38722038856896", "title": "inclination; angle with respect to x-y ecliptic plane", "units": "deg", "sigma": "3.32E-5", "name": "i"}, {"units": "deg", "title": "longitude of the ascending node", "value": "345.74675378627", "sigma": "6.6137E-5", "name": "om", "label": "node"}, {"label": "peri", "sigma": ".00022267", "name": "w", "title": "argument of perihelion", "value": "301.855903892804", "units": "deg"}, {"label": "M", "units": "deg", "title": "mean anomaly", "value": "65.5290128277602", "sigma": "8.1725E-6", "name": "ma"}, {"title": "time of perihelion passage", "value": "2460895.192910778042", "units": "TDB", "name": "tp", "sigma": "6.2793E-5", "label": "tp"}, {"label": "period", "units": "d", "title": "sidereal orbital period", "value": "1677.280755148859", "sigma": ".00016156", "name": "per"}, {"units": "deg/d", "value": ".2146331190499171", "title": "mean motion", "name": "n", "sigma": "2.0674E-8", "label": "n"}, {"label": "Q", "sigma": "2.9957E-7", "name": "ad", "title": "aphelion distance", "value": "4.665097397303012", "units": "au"}], "epoch": "2461200.5"}